[{"OBJECT_NAME":"LEMUR-2-GRAM-E-SUE","OBJECT_ID":"2026-004H","EPOCH":"2026-03-09T22:14:14.369280","MEAN_MOTION":14.87820333,"ECCENTRICITY":0.00087695,"INCLINATION":97.7976,"RA_OF_ASC_NODE":69.0865,"ARG_OF_PERICENTER":107.9643,"MEAN_ANOMALY":252.2531,"EPHEMERIS_TYPE":0,"CLASSIFICATION_TYPE":"U","NORAD_CAT_ID":67370,"ELEMENT_SET_NO":999,"REV_AT_EPOCH":853,"BSTAR":0.00070013244,"MEAN_MOTION_DOT":6.35e-5,"MEAN_MOTION_DDOT":0},{"OBJECT_NAME":"SL-14 R\/B","OBJECT_ID":"1988-056B","EPOCH":"2026-03-09T22:09:02.841984","MEAN_MOTION":14.85107061,"ECCENTRICITY":0.00200259,"INCLINATION":82.5135,"RA_OF_ASC_NODE":224.3406,"ARG_OF_PERICENTER":136.9307,"MEAN_ANOMALY":223.348,"EPHEMERIS_TYPE":0,"CLASSIFICATION_TYPE":"U","NORAD_CAT_ID":19275,"ELEMENT_SET_NO":999,"REV_AT_EPOCH":1470,"BSTAR":8.8660519e-5,"MEAN_MOTION_DOT":7.85e-6,"MEAN_MOTION_DDOT":0}]
